OBJECT_NAME,OBJECT_ID,EPOCH,MEAN_MOTION,ECCENTRICITY,INCLINATION,RA_OF_ASC_NODE,ARG_OF_PERICENTER,MEAN_ANOMALY,EPHEMERIS_TYPE,CLASSIFICATION_TYPE,NORAD_CAT_ID,ELEMENT_SET_NO,REV_AT_EPOCH,BSTAR,MEAN_MOTION_DOT,MEAN_MOTION_DDOT
STARLINK-36265,2025-304S,2026-04-23T02:23:26.365344,14.98335625,.00031856,70.0017,62.6154,268.7544,91.3250,0,U,67208,999,2053,.21071631E-3,.2422E-4,0
STARLINK-36226,2025-304T,2026-04-23T02:41:27.453984,14.98334390,.00028592,70.0020,62.6558,266.3749,93.7083,0,U,67209,999,2053,-.31797146E-3,-.3885E-4,0
STARLINK-36173,2025-304U,2026-04-23T06:41:47.566464,14.98335119,.00027215,70.0014,62.0338,270.8223,89.2624,0,U,67210,999,2056,.14708355E-3,.1663E-4,0
STARLINK-36280,2025-304V,2026-04-23T03:17:31.977024,14.98329921,.00033359,70.0017,62.3461,272.4808,87.5970,0,U,67211,999,2054,.40601773E-3,.4755E-4,0
STARLINK-36213,2025-304W,2026-04-23T06:17:44.817792,14.98336140,.00028812,70.0012,61.9730,269.1683,90.9146,0,U,67212,999,2056,.29363219E-3,.3413E-4,0
STARLINK-36199,2025-304X,2026-04-23T05:59:42.967104,14.98331793,.0002876,70.0017,61.9302,269.0641,91.0189,0,U,67213,999,2056,-.364652E-6,-.97E-6,0
STARLINK-36203,2025-304Y,2026-04-23T02:35:41.735616,14.98337272,.00039086,70.0022,62.6395,262.8278,97.2437,0,U,67214,999,2053,.26817069E-3,.3109E-4,0
STARLINK-36221,2025-304Z,2026-04-23T06:00:02.000160,14.98314491,.00035418,70.0020,62.2326,267.5939,182.5756,0,U,67215,999,572,.32370877E-2,.38731E-3,0
STARLINK-36212,2025-304AA,2026-04-23T07:00:05.821056,14.98309254,.00021122,70.0049,62.0715,274.3255,85.7663,0,U,67216,999,2056,-.81091094E-3,-.9749E-4,0
STARLINK-36216,2025-304AB,2026-04-23T03:35:45.813984,14.98341737,.00037933,70.0025,62.3785,265.0369,95.0357,0,U,67217,999,2053,.4009652E-3,.4696E-4,0
STARLINK-36211,2025-304AC,2026-04-23T06:36:00.925344,14.98336858,.00031269,70.0027,62.0158,268.9496,91.1305,0,U,67218,999,2053,.21515497E-3,.2476E-4,0
STARLINK-36490,2026-002A,2026-04-23T07:00:32.462496,15.27569663,.00018144,43.0020,73.0861,282.2997,77.7652,0,U,67305,999,1796,.16300997E-3,.4225E-4,0
STARLINK-36488,2026-002B,2026-04-23T06:29:18.119904,15.27582190,.00015512,43.0040,73.7864,255.8185,104.2495,0,U,67306,999,1789,.77508025E-3,.21129E-3,0
STARLINK-36481,2026-002C,2026-04-23T04:34:47.549568,15.27580441,.0001616,43.0048,74.0442,280.7180,79.3489,0,U,67307,999,1788,.50983539E-3,.13794E-3,0
STARLINK-36449,2026-002D,2026-04-23T05:57:50.708448,15.27579388,.00012672,42.9994,73.6147,274.0540,86.0167,0,U,67308,999,1795,.29202048E-3,.7782E-4,0
STARLINK-36482,2026-002E,2026-04-23T05:52:17.567328,15.27577805,.00012611,43.0018,73.5896,270.3274,89.7433,0,U,67309,999,1789,.11371848E-3,.2868E-4,0
STARLINK-36491,2026-002F,2026-04-22T22:32:57.888960,15.27601659,.0000688,43.0059,75.6024,277.4648,82.6126,0,U,67310,999,1784,.88542E-3,.24198E-3,0
STARLINK-36495,2026-002G,2026-04-23T07:11:38.837184,15.27588685,.00012598,43.0010,73.1422,264.8333,95.2375,0,U,67311,999,1806,.52962568E-3,.14344E-3,0
STARLINK-36485,2026-002H,2026-04-23T06:51:17.525664,15.27587082,.00015213,43.0031,73.0348,281.1208,78.9472,0,U,67312,999,1790,.3931213E-3,.10574E-3,0
STARLINK-36445,2026-002J,2026-04-22T22:44:04.077888,15.27591960,.0000772,43.0007,75.6597,239.5748,120.5027,0,U,67313,999,1800,.37897E-3,.10185E-3,0
STARLINK-36476,2026-002K,2026-04-23T06:03:23.638752,15.27585116,.00014674,43.0023,73.6427,275.2712,84.7972,0,U,67314,999,1788,.45854788E-3,.12379E-3,0
STARLINK-36463,2026-002L,2026-04-23T03:59:38.128992,15.27594068,.00014697,43.0014,73.8598,267.2725,92.7958,0,U,67315,999,1794,.47340601E-3,.12793E-3,0
STARLINK-36461,2026-002M,2026-04-23T03:54:06.863616,15.27554095,.00014236,42.9985,73.8267,251.0489,109.0209,0,U,67316,999,1804,.97695823E-3,.26698E-3,0
STARLINK-36450,2026-002N,2026-04-23T06:36:41.998176,15.27586702,.00013201,43.0044,73.8233,254.5089,105.5617,0,U,67317,999,1805,.30959506E-3,.8268E-4,0
STARLINK-36498,2026-002P,2026-04-23T06:10:47.789184,15.27585108,.00014326,43.0033,73.6824,269.5305,90.5382,0,U,67318,999,1795,.38065254E-3,.10229E-3,0
STARLINK-36470,2026-002Q,2026-04-23T06:16:20.875008,15.27587277,.0001103,43.0047,73.7146,264.2936,95.7790,0,U,67319,999,1795,.5535652E-3,.15005E-3,0
STARLINK-36500,2026-002R,2026-04-23T06:42:15.357024,15.27580794,.0001154,43.0027,73.8549,267.9536,92.1184,0,U,67320,999,1795,.48423186E-3,.13087E-3,0
STARLINK-36462,2026-002S,2026-04-22T22:34:48.950976,15.27577239,.0001298,43.0051,75.6103,268.2307,91.8396,0,U,67321,999,1784,.91561E-4,.2258E-4,0
STARLINK-36434,2026-002T,2026-04-23T06:31:09.092064,15.27616465,.00020078,43.0049,73.7943,262.5801,97.4823,0,U,67322,999,1789,.83978821E-3,.22945E-3,0
STARLINK-36497,2026-002U,2026-04-23T05:59:41.688384,15.27582105,.00012507,43.0021,73.6216,266.3487,93.7222,0,U,67323,999,1795,.65728218E-3,.1787E-3,0
