STARLINK-36265          
1 67208U 25304S   26113.09961071  .00002422  00000+0  21072-3 0  9997
2 67208  70.0017  62.6154 0003185 268.7544  91.3250 14.98335625 20533
STARLINK-36226          
1 67209U 25304T   26113.11212331 -.00003885  00000+0 -31797-3 0  9990
2 67209  70.0020  62.6558 0002859 266.3749  93.7083 14.98334390 20532
STARLINK-36173          
1 67210U 25304U   26113.27902276  .00001663  00000+0  14708-3 0  9996
2 67210  70.0014  62.0338 0002721 270.8223  89.2624 14.98335119 20566
STARLINK-36280          
1 67211U 25304V   26113.13717566  .00004755  00000+0  40602-3 0  9995
2 67211  70.0017  62.3461 0003335 272.4808  87.5970 14.98329921 20546
STARLINK-36213          
1 67212U 25304W   26113.26232428  .00003413  00000+0  29363-3 0  9990
2 67212  70.0012  61.9730 0002881 269.1683  90.9146 14.98336140 20561
STARLINK-36199          
1 67213U 25304X   26113.24980286 -.00000097  00000+0 -36465-6 0  9992
2 67213  70.0017  61.9302 0002876 269.0641  91.0189 14.98331793 20567
STARLINK-36203          
1 67214U 25304Y   26113.10812194  .00003109  00000+0  26817-3 0  9992
2 67214  70.0022  62.6395 0003908 262.8278  97.2437 14.98337272 20537
STARLINK-36221          
1 67215U 25304Z   26113.25002315  .00038731  00000+0  32371-2 0  9995
2 67215  70.0020  62.2326 0003541 267.5939 182.5756 14.98314491  5729
STARLINK-36212          
1 67216U 25304AA  26113.29173404 -.00009749  00000+0 -81091-3 0  9991
2 67216  70.0049  62.0715 0002112 274.3255  85.7663 14.98309254 20562
STARLINK-36216          
1 67217U 25304AB  26113.14983581  .00004696  00000+0  40097-3 0  9996
2 67217  70.0025  62.3785 0003793 265.0369  95.0357 14.98341737 20539
STARLINK-36211          
1 67218U 25304AC  26113.27501071  .00002476  00000+0  21515-3 0  9999
2 67218  70.0027  62.0158 0003126 268.9496  91.1305 14.98336858 20534
STARLINK-36490          
1 67305U 26002A   26113.29204239  .00004225  00000+0  16301-3 0  9991
2 67305  43.0020  73.0861 0001814 282.2997  77.7652 15.27569663 17967
STARLINK-36488          
1 67306U 26002B   26113.27034861  .00021129  00000+0  77508-3 0  9990
2 67306  43.0040  73.7864 0001551 255.8185 104.2495 15.27582190 17896
STARLINK-36481          
1 67307U 26002C   26113.19082812  .00013794  00000+0  50984-3 0  9999
2 67307  43.0048  74.0442 0001616 280.7180  79.3489 15.27580441 17886
STARLINK-36449          
1 67308U 26002D   26113.24850357  .00007782  00000+0  29202-3 0  9992
2 67308  42.9994  73.6147 0001267 274.0540  86.0167 15.27579388 17954
STARLINK-36482          
1 67309U 26002E   26113.24464777  .00002868  00000+0  11372-3 0  9999
2 67309  43.0018  73.5896 0001261 270.3274  89.7433 15.27577805 17892
STARLINK-36491          
1 67310U 26002F   26112.93955890  .00024198  00000+0  88542-3 0  9990
2 67310  43.0059  75.6024 0000688 277.4648  82.6126 15.27601659 17841
STARLINK-36495          
1 67311U 26002G   26113.29975506  .00014344  00000+0  52963-3 0  9997
2 67311  43.0010  73.1422 0001259 264.8333  95.2375 15.27588685 18064
STARLINK-36485          
1 67312U 26002H   26113.28561951  .00010574  00000+0  39312-3 0  9996
2 67312  43.0031  73.0348 0001521 281.1208  78.9472 15.27587082 17907
STARLINK-36445          
1 67313U 26002J   26112.94726942  .00010185  00000+0  37897-3 0  9996
2 67313  43.0007  75.6597 0000772 239.5748 120.5027 15.27591960 18000
STARLINK-36476          
1 67314U 26002K   26113.25235693  .00012379  00000+0  45855-3 0  9990
2 67314  43.0023  73.6427 0001467 275.2712  84.7972 15.27585116 17880
STARLINK-36463          
1 67315U 26002L   26113.16641353  .00012793  00000+0  47341-3 0  9997
2 67315  43.0014  73.8598 0001469 267.2725  92.7958 15.27594068 17945
STARLINK-36461          
1 67316U 26002M   26113.16257944  .00026698  00000+0  97696-3 0  9994
2 67316  42.9985  73.8267 0001423 251.0489 109.0209 15.27554095 18041
STARLINK-36450          
1 67317U 26002N   26113.27548609  .00008268  00000+0  30960-3 0  9992
2 67317  43.0044  73.8233 0001320 254.5089 105.5617 15.27586702 18058
STARLINK-36498          
1 67318U 26002P   26113.25749756  .00010229  00000+0  38065-3 0  9991
2 67318  43.0033  73.6824 0001432 269.5305  90.5382 15.27585108 17951
STARLINK-36470          
1 67319U 26002Q   26113.26135272  .00015005  00000+0  55357-3 0  9995
2 67319  43.0047  73.7146 0001103 264.2936  95.7790 15.27587277 17951
STARLINK-36500          
1 67320U 26002R   26113.27934441  .00013087  00000+0  48423-3 0  9997
2 67320  43.0027  73.8549 0001154 267.9536  92.1184 15.27580794 17956
STARLINK-36462          
1 67321U 26002S   26112.94084434  .00002258  00000+0  91561-4 0  9999
2 67321  43.0051  75.6103 0001298 268.2307  91.8396 15.27577239 17848
STARLINK-36434          
1 67322U 26002T   26113.27163301  .00022945  00000+0  83979-3 0  9996
2 67322  43.0049  73.7943 0002007 262.5801  97.4823 15.27616465 17899
STARLINK-36497          
1 67323U 26002U   26113.24978806  .00017870  00000+0  65728-3 0  9991
2 67323  43.0021  73.6216 0001250 266.3487  93.7222 15.27582105 17955
